{
  "type": "FeatureCollection",
  "features": [
    {
      "type": "Feature",
      "properties": {
        "norad_id": 30040,
        "name": "FENGYUN 1C DEB",
        "group": "fengyun-1c-debris",
        "lat": 81.39995295781291,
        "lon": -98.01115650163851,
        "alt_km": 781.734822356635,
        "timestamp": "2025-12-18T15:47:11.496456+00:00",
        "meta_object_name": "FENGYUN 1C DEB",
        "meta_object_id": "1999-025NR",
        "meta_epoch": "2025-12-18T00:34:10.610688",
        "meta_mean_motion": 14.37169352,
        "meta_eccentricity": 0.00323025,
        "meta_inclination": 98.2331,
        "meta_ra_of_asc_node": 8.177,
        "meta_arg_of_pericenter": 296.75,
        "meta_mean_anomaly": 117.0866,
        "meta_ephemeris_type": 0,
        "meta_classification_type": "U",
        "meta_norad_cat_id": 30040,
        "meta_element_set_no": 999,
        "meta_rev_at_epoch": 98004,
        "meta_bstar": 0.0013499754,
        "meta_mean_motion_dot": 3.999e-05,
        "meta_mean_motion_ddot": 0,
        "tle_line1": "1 30040U 99025NR  25352.02373392  .00003999  00000+0  13500-2 0  9998",
        "tle_line2": "2 30040  98.2331   8.1770 0032302 296.7500 117.0866 14.37169352980048"
      },
      "geometry": {
        "type": "Point",
        "coordinates": [
          -98.01115650163851,
          81.39995295781291
        ]
      }
    },
    {
      "type": "Feature",
      "properties": {
        "norad_id": 30041,
        "name": "FENGYUN 1C DEB",
        "group": "fengyun-1c-debris",
        "lat": -64.66890848599087,
        "lon": -101.14430670660848,
        "alt_km": 837.8601075339247,
        "timestamp": "2025-12-18T15:47:11.496466+00:00",
        "meta_object_name": "FENGYUN 1C DEB",
        "meta_object_id": "1999-025NS",
        "meta_epoch": "2025-12-18T06:16:04.326816",
        "meta_mean_motion": 14.13195278,
        "meta_eccentricity": 0.00350272,
        "meta_inclination": 99.4671,
        "meta_ra_of_asc_node": 99.0765,
        "meta_arg_of_pericenter": 201.8382,
        "meta_mean_anomaly": 187.5665,
        "meta_ephemeris_type": 0,
        "meta_classification_type": "U",
        "meta_norad_cat_id": 30041,
        "meta_element_set_no": 999,
        "meta_rev_at_epoch": 97365,
        "meta_bstar": 0.00038954286,
        "meta_mean_motion_dot": 6.84e-06,
        "meta_mean_motion_ddot": 0,
        "tle_line1": "1 30041U 99025NS  25352.26116119  .00000684  00000+0  38954-3 0  9996",
        "tle_line2": "2 30041  99.4671  99.0765 0035027 201.8382 187.5665 14.13195278973652"
      },
      "geometry": {
        "type": "Point",
        "coordinates": [
          -101.14430670660848,
          -64.66890848599087
        ]
      }
    },
    {
      "type": "Feature",
      "properties": {
        "norad_id": 30043,
        "name": "FENGYUN 1C DEB",
        "group": "fengyun-1c-debris",
        "lat": 58.86499571375157,
        "lon": -74.9314581670862,
        "alt_km": 604.5927887825192,
        "timestamp": "2025-12-18T15:47:11.496477+00:00",
        "meta_object_name": "FENGYUN 1C DEB",
        "meta_object_id": "1999-025NU",
        "meta_epoch": "2025-12-18T05:07:10.264800",
        "meta_mean_motion": 14.23601441,
        "meta_eccentricity": 0.02836111,
        "meta_inclination": 98.6278,
        "meta_ra_of_asc_node": 90.075,
        "meta_arg_of_pericenter": 115.0963,
        "meta_mean_anomaly": 247.9932,
        "meta_ephemeris_type": 0,
        "meta_classification_type": "U",
        "meta_norad_cat_id": 30043,
        "meta_element_set_no": 999,
        "meta_rev_at_epoch": 97423,
        "meta_bstar": 0.00061580145,
        "meta_mean_motion_dot": 2.079e-05,
        "meta_mean_motion_ddot": 0,
        "tle_line1": "1 30043U 99025NU  25352.21331325  .00002079  00000+0  61580-3 0  9992",
        "tle_line2": "2 30043  98.6278  90.0750 0283611 115.0963 247.9932 14.23601441974236"
      },
      "geometry": {
        "type": "Point",
        "coordinates": [
          -74.9314581670862,
          58.86499571375157
        ]
      }
    },
    {
      "type": "Feature",
      "properties": {
        "norad_id": 30044,
        "name": "FENGYUN 1C DEB",
        "group": "fengyun-1c-debris",
        "lat": -40.3110095487007,
        "lon": 85.7710680348094,
        "alt_km": 711.7765985864326,
        "timestamp": "2025-12-18T15:47:11.496487+00:00",
        "meta_object_name": "FENGYUN 1C DEB",
        "meta_object_id": "1999-025NV",
        "meta_epoch": "2025-12-18T06:30:06.177312",
        "meta_mean_motion": 14.50726801,
        "meta_eccentricity": 0.00797711,
        "meta_inclination": 98.2122,
        "meta_ra_of_asc_node": 272.4311,
        "meta_arg_of_pericenter": 150.0019,
        "meta_mean_anomaly": 210.5782,
        "meta_ephemeris_type": 0,
        "meta_classification_type": "U",
        "meta_norad_cat_id": 30044,
        "meta_element_set_no": 999,
        "meta_rev_at_epoch": 98119,
        "meta_bstar": 0.0012400633,
        "meta_mean_motion_dot": 5.037e-05,
        "meta_mean_motion_ddot": 0,
        "tle_line1": "1 30044U 99025NV  25352.27090483  .00005037  00000+0  12401-2 0  9990",
        "tle_line2": "2 30044  98.2122 272.4311 0079771 150.0019 210.5782 14.50726801981191"
      },
      "geometry": {
        "type": "Point",
        "coordinates": [
          85.7710680348094,
          -40.3110095487007
        ]
      }
    },
    {
      "type": "Feature",
      "properties": {
        "norad_id": 30045,
        "name": "FENGYUN 1C DEB",
        "group": "fengyun-1c-debris",
        "lat": 53.73774242913273,
        "lon": -138.80589987879299,
        "alt_km": 754.814353105643,
        "timestamp": "2025-12-18T15:47:11.496497+00:00",
        "meta_object_name": "FENGYUN 1C DEB",
        "meta_object_id": "1999-025NW",
        "meta_epoch": "2025-12-18T01:56:56.569920",
        "meta_mean_motion": 14.21649283,
        "meta_eccentricity": 0.00944114,
        "meta_inclination": 99.1787,
        "meta_ra_of_asc_node": 27.8614,
        "meta_arg_of_pericenter": 98.2417,
        "meta_mean_anomaly": 317.2481,
        "meta_ephemeris_type": 0,
        "meta_classification_type": "U",
        "meta_norad_cat_id": 30045,
        "meta_element_set_no": 999,
        "meta_rev_at_epoch": 96764,
        "meta_bstar": 0.0015727337,
        "meta_mean_motion_dot": 3.566e-05,
        "meta_mean_motion_ddot": 0,
        "tle_line1": "1 30045U 99025NW  25352.08121030  .00003566  00000+0  15727-2 0  9992",
        "tle_line2": "2 30045  99.1787  27.8614 0094411  98.2417 317.2481 14.21649283967641"
      },
      "geometry": {
        "type": "Point",
        "coordinates": [
          -138.80589987879299,
          53.73774242913273
        ]
      }
    },
    {
      "type": "Feature",
      "properties": {
        "norad_id": 30047,
        "name": "FENGYUN 1C DEB",
        "group": "fengyun-1c-debris",
        "lat": -20.831308485802143,
        "lon": -33.73155864441534,
        "alt_km": 942.6346063622941,
        "timestamp": "2025-12-18T15:47:11.496507+00:00",
        "meta_object_name": "FENGYUN 1C DEB",
        "meta_object_id": "1999-025NY",
        "meta_epoch": "2025-12-18T05:20:55.569696",
        "meta_mean_motion": 13.94364877,
        "meta_eccentricity": 0.01256899,
        "meta_inclination": 99.9192,
        "meta_ra_of_asc_node": 149.6192,
        "meta_arg_of_pericenter": 308.1714,
        "meta_mean_anomaly": 232.3167,
        "meta_ephemeris_type": 0,
        "meta_classification_type": "U",
        "meta_norad_cat_id": 30047,
        "meta_element_set_no": 999,
        "meta_rev_at_epoch": 95992,
        "meta_bstar": 0.0004654984,
        "meta_mean_motion_dot": 6.1e-06,
        "meta_mean_motion_ddot": 0,
        "tle_line1": "1 30047U 99025NY  25352.22286539  .00000610  00000+0  46550-3 0  9992",
        "tle_line2": "2 30047  99.9192 149.6192 0125689 308.1714 232.3167 13.94364877959922"
      },
      "geometry": {
        "type": "Point",
        "coordinates": [
          -33.73155864441534,
          -20.831308485802143
        ]
      }
    },
    {
      "type": "Feature",
      "properties": {
        "norad_id": 30048,
        "name": "FENGYUN 1C DEB",
        "group": "fengyun-1c-debris",
        "lat": -66.73719723402421,
        "lon": 17.21840363958318,
        "alt_km": 842.1535655051875,
        "timestamp": "2025-12-18T15:47:11.496517+00:00",
        "meta_object_name": "FENGYUN 1C DEB",
        "meta_object_id": "1999-025NZ",
        "meta_epoch": "2025-12-17T21:15:45.388800",
        "meta_mean_motion": 13.79896303,
        "meta_eccentricity": 0.01862815,
        "meta_inclination": 98.6664,
        "meta_ra_of_asc_node": 217.2903,
        "meta_arg_of_pericenter": 230.9672,
        "meta_mean_anomaly": 144.536,
        "meta_ephemeris_type": 0,
        "meta_classification_type": "U",
        "meta_norad_cat_id": 30048,
        "meta_element_set_no": 999,
        "meta_rev_at_epoch": 95197,
        "meta_bstar": 0.00020750601,
        "meta_mean_motion_dot": 2.05e-06,
        "meta_mean_motion_ddot": 0,
        "tle_line1": "1 30048U 99025NZ  25351.88594200  .00000205  00000+0  20751-3 0  9996",
        "tle_line2": "2 30048  98.6664 217.2903 0186281 230.9672 144.5360 13.79896303951978"
      },
      "geometry": {
        "type": "Point",
        "coordinates": [
          17.21840363958318,
          -66.73719723402421
        ]
      }
    }
  ]
}